{"fetched_at":"2026-03-30T06:02:59Z","count":15439,"tles":[{"name":"STARLINK-30869","line1":"1 58437U 23183A   26087.90403571  .00002082  00000+0  87298-4 0  9995","line2":"2 58437  43.0045 293.0493 0001512 255.4006 104.6678 15.26735359129679","category":"Starlink"}]}