{
  "norad_id": 58437,
  "name": "STARLINK-30869",
  "history": [
    {
      "epoch": "2026-03-28T21:41:48.685344",
      "apogee_km": 486.6172149155609,
      "perigee_km": 484.54162706985335,
      "latitude_deg": -11.986856673930669,
      "longitude_deg": 110.48742815991864,
      "semi_major_axis_km": 6863.716420992707,
      "eccentricity": 0.0001512,
      "inclination_deg": 43.0045,
      "raan_deg": 293.0493,
      "arg_perigee_deg": 255.4006,
      "mean_anomaly_deg": 104.6678,
      "mean_motion_rev_day": 15.26735359
    }
  ]
}